NORAD_CAT_ID,OBJECT_NAME,OBJECT_TYPE,EPOCH,MEAN_MOTION,ECCENTRICITY,INCLINATION,RA_OF_ASC_NODE,ARG_OF_PERICENTER,MEAN_ANOMALY,BSTAR,MEAN_MOTION_DOT,MEAN_MOTION_DDOT,TLE_LINE0,TLE_LINE1,TLE_LINE2,SEMIMAJOR_AXIS,PERIOD,APOGEE,PERIGEE,DECAYED
50186.0,STARLINK-3274,PAYLOAD,2022-12-31 12:25:38,15.08852373,0.0002011,53.2178,85.3016,38.6804,321.4332,0.00042319,6.456e-05,0.0,0 STARLINK-3274,1 50186U 21125AG  22365.51780756  .00006456  00000-0  42319-3 0  9991,2 50186  53.2178  85.3016 0002011  38.6804 321.4332 15.08852373 60224,6917.843000000003,95.437,541.099,538.316,0.0
50186.0,STARLINK-3274,PAYLOAD,2022-12-31 17:11:47,15.08858952,0.0001936,53.2176,84.4071,36.9391,323.1735,0.00042514,6.488e-05,0.0,0 STARLINK-3274,1 50186U 21125AG  22365.71652107  .00006488  00000-0  42514-3 0  9993,2 50186  53.2176  84.4071 0001936  36.9391 323.1735 15.08858952 60731,6917.821999999999,95.436,541.0269999999998,538.3480000000002,0.0
50186.0,STARLINK-3274,PAYLOAD,2023-01-01 05:54:53,15.08835204,0.0001811999999999,53.2179,82.0284,29.9459,330.1636,-0.0003056,-5.148e-05,0.0,0 STARLINK-3274,1 50186U 21125AG  23001.24645077 -.00005148  00000-0 -30560-3 0  9999,2 50186  53.2179  82.0284 0001812  29.9459 330.1636 15.08835204 60333,6917.895,95.438,541.014,538.507,0.0
50186.0,STARLINK-3274,PAYLOAD,2023-01-01 12:16:26,15.08820448,0.000198,53.2176,80.8405,40.9385,319.1755,-0.00046621,-7.696e-05,0.0,0 STARLINK-3274,1 50186U 21125AG  23001.51141960 -.00007696  00000-0 -46621-3 0  9996,2 50186  53.2176  80.8405 0001980  40.9385 319.1755 15.08820448 60375,6917.94,95.439,541.175,538.435,0.0
50186.0,STARLINK-3274,PAYLOAD,2023-01-01 21:48:45,15.08818268,0.0001821,53.2166,79.0567,44.1008,316.0129,-0.00044326,-7.332e-05,0.0,0 STARLINK-3274,1 50186U 21125AG  23001.90886471 -.00007332  00000-0 -44326-3 0  9999,2 50186  53.2166  79.0567 0001821  44.1008 316.0129 15.08818268 60913,6917.946999999999,95.439,541.072,538.552,0.0
50186.0,STARLINK-3274,PAYLOAD,2023-01-02 05:45:41,15.08821052,0.0002092,53.2169,77.5689,35.3115,324.8015,-0.00023183,-3.974e-05,0.0,0 STARLINK-3274,1 50186U 21125AG  23002.24006633 -.00003974  00000-0 -23183-3 0  9997,2 50186  53.2169  77.5689 0002092  35.3115 324.8015 15.08821052 60484,6917.938,95.439,541.251,538.356,0.0
50186.0,STARLINK-3274,PAYLOAD,2023-01-02 13:42:37,15.08821263,0.0002185,53.2167,76.0824,38.9223,321.1927,0.00016169,2.285e-05,0.0,0 STARLINK-3274,1 50186U 21125AG  23002.57127059  .00002285  00000-0  16169-3 0  9997,2 50186  53.2167  76.0824 0002185  38.9223 321.1927 15.08821263 61015,6917.938,95.439,541.314,538.2909999999998,0.0
50186.0,STARLINK-3274,PAYLOAD,2023-01-02 21:39:33,15.08833161,0.0002151999999999,53.2168,74.5958,38.0874,322.027,0.0010014,0.00015682,0.0,0 STARLINK-3274,1 50186U 21125AG  23002.90247623  .00015682  00000-0  10014-2 0  9991,2 50186  53.2168  74.5958 0002152  38.0874 322.0270 15.08833161 61060,6917.901,95.438,541.255,538.278,0.0
50186.0,STARLINK-3274,PAYLOAD,2023-01-03 05:36:29,15.08852017,0.0002190999999999,53.2167,73.109,39.1799,320.9352,0.0012727,0.00020032,0.0,0 STARLINK-3274,1 50186U 21125AG  23003.23367477  .00020032  00000-0  12727-2 0  9996,2 50186  53.2167  73.1090 0002191  39.1799 320.9352 15.08852017 60633,6917.844,95.437,541.224,538.193,0.0
50186.0,STARLINK-3274,PAYLOAD,2023-01-03 16:44:11,15.08854285,0.0002261,53.2177,71.0273,34.2122,325.9016,0.00067213,0.00010429,0.0,0 STARLINK-3274,1 50186U 21125AG  23003.69735159  .00010429  00000-0  67213-3 0  9992,2 50186  53.2177  71.0273 0002261  34.2122 325.9016 15.08854285 60707,6917.837,95.437,541.266,538.138,0.0
50186.0,STARLINK-3274,PAYLOAD,2023-01-04 10:13:25,15.08862657,0.000287,53.2166,67.7571,44.0369,316.0852,0.00076977,0.00011992,0.0,0 STARLINK-3274,1 50186U 21125AG  23004.42598773  .00011992  00000-0  76977-3 0  9996,2 50186  53.2166  67.7571 0002870  44.0369 316.0852 15.08862657 61292,6917.811,95.436,541.6619999999998,537.691,0.0
50186.0,STARLINK-3274,PAYLOAD,2023-01-04 11:48:48,15.08860741,0.0002194,53.2166,67.4593,37.7952,322.3194,0.00074214,0.0001155,0.0,0 STARLINK-3274,1 50186U 21125AG  23004.49222672  .00011550  00000-0  74214-3 0  9997,2 50186  53.2166  67.4593 0002194  37.7952 322.3194 15.08860741 60828,6917.816999999999,95.436,541.2,538.164,0.0
50186.0,STARLINK-3274,PAYLOAD,2023-01-04 21:21:06,15.08867849,0.0002234,53.2165,65.6752,37.5183,322.5965,0.00086275,0.0001348,0.0,0 STARLINK-3274,1 50186U 21125AG  23004.88966100  .00013480  00000-0  86275-3 0  9995,2 50186  53.2165  65.6752 0002234  37.5183 322.5965 15.08867849 61367,6917.795,95.436,541.206,538.115,0.0
50186.0,STARLINK-3274,PAYLOAD,2023-01-05 13:14:56,15.08874778,0.0002278,53.2169,62.7013,39.1972,320.9184,0.00052127,8.025e-05,0.0,0 STARLINK-3274,1 50186U 21125AG  23005.55204780  .00008025  00000-0  52127-3 0  9997,2 50186  53.2169  62.7013 0002278  39.1972 320.9184 15.08874778 60982,6917.774,95.435,541.215,538.063,0.0
50186.0,STARLINK-3274,PAYLOAD,2023-01-06 13:05:44,15.08828189,0.0002274,53.2181,58.2421,23.3631,336.7464,-0.00046526,-7.683e-05,0.0,0 STARLINK-3274,1 50186U 21125AG  23006.54565306 -.00007683  00000-0 -46526-3 0  9998,2 50186  53.2181  58.2421 0002274  23.3631 336.7464 15.08828189 61131,6917.916,95.438,541.355,538.2080000000002,0.0
50186.0,STARLINK-3274,PAYLOAD,2023-01-07 03:24:13,15.08821913,0.0002137,53.2188,55.5655,26.0879,334.0221,1.2795e-05,-8.5e-07,0.0,0 STARLINK-3274,1 50186U 21125AG  23007.14182309 -.00000085  00000-0  12795-4 0  9993,2 50186  53.2188  55.5655 0002137  26.0879 334.0221 15.08821913 61702,6917.936,95.439,541.279,538.322,0.0
50186.0,STARLINK-3274,PAYLOAD,2023-01-07 09:45:45,15.08840819,0.0002325,53.2157,54.3762,31.4968,328.6163,0.0003642,5.513e-05,0.0,0 STARLINK-3274,1 50186U 21125AG  23007.40678107  .00005513  00000-0  36420-3 0  9998,2 50186  53.2157  54.3762 0002325  31.4968 328.6163 15.08840819 61263,6917.8780000000015,95.438,541.351,538.134,0.0
50186.0,STARLINK-3274,PAYLOAD,2023-01-08 01:39:38,15.08828186,0.0002291,53.2145,51.401,24.4303,335.6797,0.0004363,6.659999999999999e-05,0.0,0 STARLINK-3274,1 50186U 21125AG  23008.06919504  .00006660  00000-0  43630-3 0  9995,2 50186  53.2145  51.4010 0002291  24.4303 335.6797 15.08828186 61366,6917.916,95.438,541.366,538.197,0.0
50186.0,STARLINK-3274,PAYLOAD,2023-01-08 09:36:34,15.088346599999998,0.0002402,53.2175,49.9148,355.6879,4.4092,0.00046162,7.065e-05,0.0,0 STARLINK-3274,1 50186U 21125AG  23008.40039595  .00007065  00000-0  46162-3 0  9999,2 50186  53.2175  49.9148 0002402 355.6879   4.4092 15.08834660 61895,6917.897,95.438,541.423,538.1,0.0
50186.0,STARLINK-3274,PAYLOAD,2023-01-08 19:08:52,15.08850073,0.0002488,53.2167,48.1311,38.0478,322.0689,0.00072157,0.00011218,0.0,0 STARLINK-3274,1 50186U 21125AG  23008.79783319  .00011218  00000-0  72157-3 0  9999,2 50186  53.2167  48.1311 0002488  38.0478 322.0689 15.08850073 61471,6917.85,95.437,541.436,537.993,0.0
50186.0,STARLINK-3274,PAYLOAD,2023-01-09 09:27:20,15.08857197,0.0002553,53.2157,45.4533,38.4627,321.6546,0.00055332,8.533e-05,0.0,0 STARLINK-3274,1 50186U 21125AG  23009.39398840  .00008533  00000-0  55332-3 0  9999,2 50186  53.2157  45.4533 0002553  38.4627 321.6546 15.08857197 62044,6917.828,95.436,541.4590000000002,537.927,0.0
50186.0,STARLINK-3274,PAYLOAD,2023-01-09 12:38:06,15.08854045,0.0002224,53.219,44.8618,35.7869,324.3272,0.00036067,5.459e-05,0.0,0 STARLINK-3274,1 50186U 21125AG  23009.52646798  .00005459  00000-0  36067-3 0  9990,2 50186  53.2190  44.8618 0002224  35.7869 324.3272 15.08854045 61584,6917.837,95.437,541.241,538.164,0.0
50186.0,STARLINK-3274,PAYLOAD,2023-01-10 09:18:07,15.08840443,0.0002296,53.2177,40.9936,32.3514,327.7618,-0.00013468,-2.431e-05,0.0,0 STARLINK-3274,1 50186U 21125AG  23010.38758660 -.00002431  00000-0 -13468-3 0  9997,2 50186  53.2177  40.9936 0002296  32.3514 327.7618 15.08840443 61711,6917.879,95.438,541.332,538.156,0.0
50186.0,STARLINK-3274,PAYLOAD,2023-01-10 10:53:30,15.08840049,0.0002309,53.2177,40.6975,34.5101,325.6041,-2.9142e-05,-7.52e-06,0.0,0 STARLINK-3274,1 50186U 21125AG  23010.45382864 -.00000752  00000-0 -29142-4 0  9995,2 50186  53.2177  40.6975 0002309  34.5101 325.6041 15.08840049 62206,6917.88,95.438,541.3430000000002,538.148,0.0
50186.0,STARLINK-3274,PAYLOAD,2023-01-10 18:50:26,15.08849278,0.0002076,53.2159,39.2118,31.0015,329.1099,9.218e-05,1.179e-05,0.0,0 STARLINK-3274,1 50186U 21125AG  23010.78502345  .00001179  00000-0  92180-4 0  9993,2 50186  53.2159  39.2118 0002076  31.0015 329.1099 15.08849278 62256,6917.852,95.437,541.153,538.281,0.0
50186.0,STARLINK-3274,PAYLOAD,2023-01-11 09:08:54,15.0884949,0.0002388,53.2171,36.534,35.2319,324.8831,9.8751e-05,1.284e-05,0.0,0 STARLINK-3274,1 50186U 21125AG  23011.38118271  .00001284  00000-0  98751-4 0  9998,2 50186  53.2171  36.5340 0002388  35.2319 324.8831 15.08849490 61864,6917.851,95.437,541.368,538.064,0.0
50186.0,STARLINK-3274,PAYLOAD,2023-01-11 18:41:12,15.08848674,0.000237,53.2171,34.7493,35.4718,324.6431,0.00010853,1.44e-05,0.0,0 STARLINK-3274,1 50186U 21125AG  23011.77862167  .00001440  00000-0  10853-3 0  9991,2 50186  53.2171  34.7493 0002370  35.4718 324.6431 15.08848674 62407,6917.854,95.437,541.3580000000002,538.0790000000002,0.0
50186.0,STARLINK-3274,PAYLOAD,2023-01-12 18:31:59,15.08844426,0.0002327,53.2175,30.2898,36.3821,323.7329,-6.968600000000001e-05,-1.397e-05,0.0,0 STARLINK-3274,1 50186U 21125AG  23012.77221548 -.00001397  00000-0 -69686-4 0  9996,2 50186  53.2175  30.2898 0002327  36.3821 323.7329 15.08844426 62078,6917.866999999998,95.437,541.342,538.122,0.0
50186.0,STARLINK-3274,PAYLOAD,2023-01-12 23:18:09,15.08814329,0.0002087,53.2173,29.3968,39.46,320.6544,-0.00073767,-0.00012001,0.0,0 STARLINK-3274,1 50186U 21125AG  23012.97094500 -.00012001  00000-0 -73767-3 0  9992,2 50186  53.2173  29.3968 0002087  39.4600 320.6544 15.08814329 62103,6917.959,95.439,541.268,538.38,0.0
